LANDSAT 9               
1 49260U 21088A   23348.21434180  .00000438  00000+0  10735-3 0  9996
2 49260  98.2116  55.7718 0001199  88.2135 271.9201 14.57101680117600
